<?xml version="1.0" encoding="UTF-8"?>
<ndm xmlns:xsi="http://www.w3.org/2001/XMLSchema-instance" xsi:noNamespaceSchemaLocation="https://sanaregistry.org/r/ndmxml_unqualified/ndmxml-2.0.0-master-2.0.xsd">
<omm id="CCSDS_OMM_VERS" version="2.0">
<header><CREATION_DATE/><ORIGINATOR/></header><body><segment><metadata><OBJECT_NAME>IRIDIUM 171</OBJECT_NAME><OBJECT_ID>2019-002H</OBJECT_ID><CENTER_NAME>EARTH</CENTER_NAME><REF_FRAME>TEME</REF_FRAME><TIME_SYSTEM>UTC</TIME_SYSTEM><MEAN_ELEMENT_THEORY>SGP4</MEAN_ELEMENT_THEORY></metadata><data><meanElements><EPOCH>2024-08-19T12:33:18.136512</EPOCH><MEAN_MOTION>14.34214668</MEAN_MOTION><ECCENTRICITY>.0002005</ECCENTRICITY><INCLINATION>86.3937</INCLINATION><RA_OF_ASC_NODE>272.3929</RA_OF_ASC_NODE><ARG_OF_PERICENTER>98.1183</ARG_OF_PERICENTER><MEAN_ANOMALY>262.0240</MEAN_ANOMALY></meanElements><tleParameters><EPHEMERIS_TYPE>0</EPHEMERIS_TYPE><CLASSIFICATION_TYPE>U</CLASSIFICATION_TYPE><NORAD_CAT_ID>43929</NORAD_CAT_ID><ELEMENT_SET_NO>999</ELEMENT_SET_NO><REV_AT_EPOCH>29340</REV_AT_EPOCH><BSTAR>.54427E-4</BSTAR><MEAN_MOTION_DOT>.172E-5</MEAN_MOTION_DOT><MEAN_MOTION_DDOT>0</MEAN_MOTION_DDOT></tleParameters></data></segment></body></omm>
<omm id="CCSDS_OMM_VERS" version="2.0">
<header><CREATION_DATE/><ORIGINATOR/></header><body><segment><metadata><OBJECT_NAME>IRIDIUM 170</OBJECT_NAME><OBJECT_ID>2019-002J</OBJECT_ID><CENTER_NAME>EARTH</CENTER_NAME><REF_FRAME>TEME</REF_FRAME><TIME_SYSTEM>UTC</TIME_SYSTEM><MEAN_ELEMENT_THEORY>SGP4</MEAN_ELEMENT_THEORY></metadata><data><meanElements><EPOCH>2024-08-19T12:54:27.689472</EPOCH><MEAN_MOTION>14.72295827</MEAN_MOTION><ECCENTRICITY>.0002335</ECCENTRICITY><INCLINATION>86.6053</INCLINATION><RA_OF_ASC_NODE>272.1952</RA_OF_ASC_NODE><ARG_OF_PERICENTER>96.7523</ARG_OF_PERICENTER><MEAN_ANOMALY>263.3960</MEAN_ANOMALY></meanElements><tleParameters><EPHEMERIS_TYPE>0</EPHEMERIS_TYPE><CLASSIFICATION_TYPE>U</CLASSIFICATION_TYPE><NORAD_CAT_ID>43930</NORAD_CAT_ID><ELEMENT_SET_NO>999</ELEMENT_SET_NO><REV_AT_EPOCH>30117</REV_AT_EPOCH><BSTAR>.42928E-3</BSTAR><MEAN_MOTION_DOT>.2735E-4</MEAN_MOTION_DOT><MEAN_MOTION_DDOT>0</MEAN_MOTION_DDOT></tleParameters></data></segment></body></omm>
<omm id="CCSDS_OMM_VERS" version="2.0">
<header><CREATION_DATE/><ORIGINATOR/></header><body><segment><metadata><OBJECT_NAME>IRIDIUM 167</OBJECT_NAME><OBJECT_ID>2019-002K</OBJECT_ID><CENTER_NAME>EARTH</CENTER_NAME><REF_FRAME>TEME</REF_FRAME><TIME_SYSTEM>UTC</TIME_SYSTEM><MEAN_ELEMENT_THEORY>SGP4</MEAN_ELEMENT_THEORY></metadata><data><meanElements><EPOCH>2024-08-19T12:24:10.415808</EPOCH><MEAN_MOTION>14.34212004</MEAN_MOTION><ECCENTRICITY>.0002088</ECCENTRICITY><INCLINATION>86.3928</INCLINATION><RA_OF_ASC_NODE>272.1790</RA_OF_ASC_NODE><ARG_OF_PERICENTER>92.5214</ARG_OF_PERICENTER><MEAN_ANOMALY>267.6221</MEAN_ANOMALY></meanElements><tleParameters><EPHEMERIS_TYPE>0</EPHEMERIS_TYPE><CLASSIFICATION_TYPE>U</CLASSIFICATION_TYPE><NORAD_CAT_ID>43931</NORAD_CAT_ID><ELEMENT_SET_NO>999</ELEMENT_SET_NO><REV_AT_EPOCH>29340</REV_AT_EPOCH><BSTAR>.22824E-3</BSTAR><MEAN_MOTION_DOT>.659E-5</MEAN_MOTION_DOT><MEAN_MOTION_DDOT>0</MEAN_MOTION_DDOT></tleParameters></data></segment></body></omm>
<omm id="CCSDS_OMM_VERS" version="2.0">
<header><CREATION_DATE/><ORIGINATOR/></header><body><segment><metadata><OBJECT_NAME>IRIDIUM 181</OBJECT_NAME><OBJECT_ID>2023-068S</OBJECT_ID><CENTER_NAME>EARTH</CENTER_NAME><REF_FRAME>TEME</REF_FRAME><TIME_SYSTEM>UTC</TIME_SYSTEM><MEAN_ELEMENT_THEORY>SGP4</MEAN_ELEMENT_THEORY></metadata><data><meanElements><EPOCH>2024-08-19T12:45:41.942880</EPOCH><MEAN_MOTION>14.43567170</MEAN_MOTION><ECCENTRICITY>.0001891</ECCENTRICITY><INCLINATION>86.8674</INCLINATION><RA_OF_ASC_NODE>328.9977</RA_OF_ASC_NODE><ARG_OF_PERICENTER>88.3845</ARG_OF_PERICENTER><MEAN_ANOMALY>271.7573</MEAN_ANOMALY></meanElements><tleParameters><EPHEMERIS_TYPE>0</EPHEMERIS_TYPE><CLASSIFICATION_TYPE>U</CLASSIFICATION_TYPE><NORAD_CAT_ID>56726</NORAD_CAT_ID><ELEMENT_SET_NO>999</ELEMENT_SET_NO><REV_AT_EPOCH>6627</REV_AT_EPOCH><BSTAR>.343E-3</BSTAR><MEAN_MOTION_DOT>.118E-4</MEAN_MOTION_DOT><MEAN_MOTION_DDOT>0</MEAN_MOTION_DDOT></tleParameters></data></segment></body></omm>
<omm id="CCSDS_OMM_VERS" version="2.0">
<header><CREATION_DATE/><ORIGINATOR/></header><body><segment><metadata><OBJECT_NAME>IRIDIUM 177</OBJECT_NAME><OBJECT_ID>2023-068T</OBJECT_ID><CENTER_NAME>EARTH</CENTER_NAME><REF_FRAME>TEME</REF_FRAME><TIME_SYSTEM>UTC</TIME_SYSTEM><MEAN_ELEMENT_THEORY>SGP4</MEAN_ELEMENT_THEORY></metadata><data><meanElements><EPOCH>2024-08-19T12:00:20.759328</EPOCH><MEAN_MOTION>14.80218248</MEAN_MOTION><ECCENTRICITY>.0002202</ECCENTRICITY><INCLINATION>86.1950</INCLINATION><RA_OF_ASC_NODE>285.3005</RA_OF_ASC_NODE><ARG_OF_PERICENTER>86.0454</ARG_OF_PERICENTER><MEAN_ANOMALY>274.1019</MEAN_ANOMALY></meanElements><tleParameters><EPHEMERIS_TYPE>0</EPHEMERIS_TYPE><CLASSIFICATION_TYPE>U</CLASSIFICATION_TYPE><NORAD_CAT_ID>56727</NORAD_CAT_ID><ELEMENT_SET_NO>999</ELEMENT_SET_NO><REV_AT_EPOCH>6774</REV_AT_EPOCH><BSTAR>.50738E-3</BSTAR><MEAN_MOTION_DOT>.3881E-4</MEAN_MOTION_DOT><MEAN_MOTION_DDOT>0</MEAN_MOTION_DDOT></tleParameters></data></segment></body></omm>
<omm id="CCSDS_OMM_VERS" version="2.0">
<header><CREATION_DATE/><ORIGINATOR/></header><body><segment><metadata><OBJECT_NAME>IRIDIUM 174</OBJECT_NAME><OBJECT_ID>2023-068U</OBJECT_ID><CENTER_NAME>EARTH</CENTER_NAME><REF_FRAME>TEME</REF_FRAME><TIME_SYSTEM>UTC</TIME_SYSTEM><MEAN_ELEMENT_THEORY>SGP4</MEAN_ELEMENT_THEORY></metadata><data><meanElements><EPOCH>2024-08-19T11:52:32.578464</EPOCH><MEAN_MOTION>14.80218542</MEAN_MOTION><ECCENTRICITY>.0001885</ECCENTRICITY><INCLINATION>86.1956</INCLINATION><RA_OF_ASC_NODE>285.4117</RA_OF_ASC_NODE><ARG_OF_PERICENTER>87.2590</ARG_OF_PERICENTER><MEAN_ANOMALY>272.8846</MEAN_ANOMALY></meanElements><tleParameters><EPHEMERIS_TYPE>0</EPHEMERIS_TYPE><CLASSIFICATION_TYPE>U</CLASSIFICATION_TYPE><NORAD_CAT_ID>56728</NORAD_CAT_ID><ELEMENT_SET_NO>999</ELEMENT_SET_NO><REV_AT_EPOCH>6774</REV_AT_EPOCH><BSTAR>.52884E-3</BSTAR><MEAN_MOTION_DOT>.4044E-4</MEAN_MOTION_DOT><MEAN_MOTION_DDOT>0</MEAN_MOTION_DDOT></tleParameters></data></segment></body></omm>
<omm id="CCSDS_OMM_VERS" version="2.0">
<header><CREATION_DATE/><ORIGINATOR/></header><body><segment><metadata><OBJECT_NAME>IRIDIUM 178</OBJECT_NAME><OBJECT_ID>2023-068V</OBJECT_ID><CENTER_NAME>EARTH</CENTER_NAME><REF_FRAME>TEME</REF_FRAME><TIME_SYSTEM>UTC</TIME_SYSTEM><MEAN_ELEMENT_THEORY>SGP4</MEAN_ELEMENT_THEORY></metadata><data><meanElements><EPOCH>2024-08-19T13:22:04.660896</EPOCH><MEAN_MOTION>14.80209467</MEAN_MOTION><ECCENTRICITY>.0002022</ECCENTRICITY><INCLINATION>86.5789</INCLINATION><RA_OF_ASC_NODE>305.8573</RA_OF_ASC_NODE><ARG_OF_PERICENTER>96.3475</ARG_OF_PERICENTER><MEAN_ANOMALY>263.7976</MEAN_ANOMALY></meanElements><tleParameters><EPHEMERIS_TYPE>0</EPHEMERIS_TYPE><CLASSIFICATION_TYPE>U</CLASSIFICATION_TYPE><NORAD_CAT_ID>56729</NORAD_CAT_ID><ELEMENT_SET_NO>999</ELEMENT_SET_NO><REV_AT_EPOCH>6775</REV_AT_EPOCH><BSTAR>.51101E-3</BSTAR><MEAN_MOTION_DOT>.3908E-4</MEAN_MOTION_DOT><MEAN_MOTION_DDOT>0</MEAN_MOTION_DDOT></tleParameters></data></segment></body></omm>
<omm id="CCSDS_OMM_VERS" version="2.0">
<header><CREATION_DATE/><ORIGINATOR/></header><body><segment><metadata><OBJECT_NAME>IRIDIUM 179</OBJECT_NAME><OBJECT_ID>2023-068W</OBJECT_ID><CENTER_NAME>EARTH</CENTER_NAME><REF_FRAME>TEME</REF_FRAME><TIME_SYSTEM>UTC</TIME_SYSTEM><MEAN_ELEMENT_THEORY>SGP4</MEAN_ELEMENT_THEORY></metadata><data><meanElements><EPOCH>2024-08-19T13:14:03.089760</EPOCH><MEAN_MOTION>14.80274415</MEAN_MOTION><ECCENTRICITY>.0002196</ECCENTRICITY><INCLINATION>86.6810</INCLINATION><RA_OF_ASC_NODE>310.7936</RA_OF_ASC_NODE><ARG_OF_PERICENTER>89.8766</ARG_OF_PERICENTER><MEAN_ANOMALY>270.2707</MEAN_ANOMALY></meanElements><tleParameters><EPHEMERIS_TYPE>0</EPHEMERIS_TYPE><CLASSIFICATION_TYPE>U</CLASSIFICATION_TYPE><NORAD_CAT_ID>56730</NORAD_CAT_ID><ELEMENT_SET_NO>999</ELEMENT_SET_NO><REV_AT_EPOCH>6775</REV_AT_EPOCH><BSTAR>.48215E-3</BSTAR><MEAN_MOTION_DOT>.3694E-4</MEAN_MOTION_DOT><MEAN_MOTION_DDOT>0</MEAN_MOTION_DDOT></tleParameters></data></segment></body></omm>
</ndm>
