43929,IRIDIUM 171,2019,100.4,860.0,+,86.39,Active,1,LEO,USA,USA,Commercial/Government,Communications,Falcon,1 43929U 19002H   24232.52312658  .00000172  00000+0  54427-4 0  9999,2 43929  86.3937 272.3929 0002005  98.1183 262.0240 14.34214668293409,14.34214668,0.0002005,LEO
43930,IRIDIUM 170,2019,97.81,860.0,+,86.61,Active,1,LEO,USA,USA,Commercial/Government,Communications,Falcon,1 43930U 19002J   24232.53782048  .00002735  00000+0  42928-3 0  9995,2 43930  86.6053 272.1952 0002335  96.7523 263.3960 14.72295827301170,14.72295827,0.0002335,LEO
43931,IRIDIUM 167,2019,100.4,860.0,+,86.39,Active,1,LEO,USA,USA,Commercial/Government,Communications,Falcon,1 43931U 19002K   24232.51678722  .00000659  00000+0  22824-3 0  9993,2 43931  86.3928 272.1790 0002088  92.5214 267.6221 14.34212004293402,14.34212004,0.0002088,LEO
56726,IRIDIUM 181,2023,99.75,-1.0,+,86.87,Active,0,LEO,USA,USA,Unknown,Unknown,Unknown,1 56726U 23068S   24232.53173545  .00001180  00000+0  34300-3 0  9993,2 56726  86.8674 328.9977 0001891  88.3845 271.7573 14.43567170 66278,14.4356717,0.0001891,LEO
56727,IRIDIUM 177,2023,97.28,-1.0,+,86.19,Active,0,LEO,USA,USA,Unknown,Unknown,Unknown,1 56727U 23068T   24232.50024027  .00003881  00000+0  50738-3 0  9994,2 56727  86.1950 285.3005 0002202  86.0454 274.1019 14.80218248 67740,14.80218248,0.0002202,LEO
56728,IRIDIUM 174,2023,97.28,-1.0,+,86.2,Active,0,LEO,USA,USA,Unknown,Unknown,Unknown,1 56728U 23068U   24232.49482151  .00004044  00000+0  52884-3 0  9995,2 56728  86.1956 285.4117 0001885  87.2590 272.8846 14.80218542 67742,14.80218542,0.0001885,LEO
56729,IRIDIUM 178,2023,97.28,-1.0,+,86.58,Active,0,LEO,USA,USA,Unknown,Unknown,Unknown,1 56729U 23068V   24232.55699839  .00003908  00000+0  51101-3 0  9995,2 56729  86.5789 305.8573 0002022  96.3475 263.7976 14.80209467 67751,14.80209467,0.0002022,LEO
56730,IRIDIUM 179,2023,97.28,-1.0,+,86.68,Active,0,LEO,USA,USA,Unknown,Unknown,Unknown,1 56730U 23068W   24232.55142465  .00003694  00000+0  48215-3 0  9999,2 56730  86.6810 310.7936 0002196  89.8766 270.2707 14.80274415 67759,14.80274415,0.0002196,LEO
